[
    {
        "Altitude(m)": 605470.7958984002,
        "Argument of Periapsis(deg)": 0.0,
        "Eccentricity": 0.0,
        "Inclination(deg)": 60.0,
        "Latitude(deg)": 27.988225304599126,
        "Longitude(deg)": 122.26296524478211,
        "Mean Anomaly(deg)": 147.2727,
        "RAAN(deg)": 60.0,
        "Satellite Name": "Test1 273",
        "Satellite Number": 273,
        "Semi-Major Axis(m)": 6980739.136638005,
        "Time(s)": 0
    },
    {
        "Altitude(m)": 605395.8336442702,
        "Argument of Periapsis(deg)": 0.00010418945913296404,
        "Eccentricity": 0.0,
        "Inclination(deg)": 60.0,
        "Latitude(deg)": 27.473915789391956,
        "Longitude(deg)": 122.61615269124006,
        "Mean Anomaly(deg)": 147.8928061454618,
        "RAAN(deg)": 59.99957995086026,
        "Satellite Name": "Test1 273",
        "Satellite Number": 273,
        "Semi-Major Axis(m)": 6980739.136638005,
        "Time(s)": 10
    }
]